[{"OBJECT_NAME":"STARLINK-35913","OBJECT_ID":"2025-293B","EPOCH":"2026-03-09T19:04:56.072352","MEAN_MOTION":14.98325516,"ECCENTRICITY":0.00036107,"INCLINATION":70.001,"RA_OF_ASC_NODE":94.1909,"ARG_OF_PERICENTER":271.7545,"MEAN_ANOMALY":88.32,"EPHEMERIS_TYPE":0,"CLASSIFICATION_TYPE":"U","NORAD_CAT_ID":67004,"ELEMENT_SET_NO":999,"REV_AT_EPOCH":1490,"BSTAR":0.00023817162,"MEAN_MOTION_DOT":2.75e-5,"MEAN_MOTION_DDOT":0},{"OBJECT_NAME":"UNKNOWN","OBJECT_ID":"","EPOCH":"2026-03-09T16:30:44.564256","MEAN_MOTION":14.36564228,"ECCENTRICITY":0.0359571,"INCLINATION":65.6735,"RA_OF_ASC_NODE":282.8329,"ARG_OF_PERICENTER":31.2915,"MEAN_ANOMALY":28.2093,"EPHEMERIS_TYPE":0,"CLASSIFICATION_TYPE":"U","NORAD_CAT_ID":87764,"ELEMENT_SET_NO":999,"REV_AT_EPOCH":63160,"BSTAR":0.0015438,"MEAN_MOTION_DOT":9.503e-5,"MEAN_MOTION_DDOT":0}]
